TJS-24                  
1 69235U 26116A   26178.97641046 -.00000219  00000+0  00000+0 0  9993
2 69235   0.0421 106.0285 0000586 346.5966 265.2427  1.00270669   339
